LEMUR-2-XUENITERENCE    
1 42772U 17036H   17331.86495569  .00001883  00000-0  89104-4 0  9992
2 42772  97.4308  29.4906 0016161  54.5439 305.7302 15.20487522 23900
LEMUR-2-LUCYBRYCE       
1 42773U 17036J   17331.85391420  .00002769  00000-0  12880-3 0  9993
2 42773  97.4311  29.5071 0015869  54.3125 305.9585 15.20686334 23900
LEMUR-2-KUNGFOO         
1 42774U 17036K   17331.85799226  .00002233  00000-0  10485-3 0  9995
2 42774  97.4311  29.5052 0015914  54.2503 306.0210 15.20558687 23894
AALTO-1                 
1 42775U 17036L   17331.86006584  .00001234  00000-0  59694-4 0  9991
2 42775  97.4302  29.4967 0015643  53.1792 307.0875 15.20361542 23908
URSA MAIOR              
1 42776U 17036M   17331.72390538  .00001485  00000-0  71108-4 0  9994
2 42776  97.4306  29.3788 0015500  53.9518 306.3150 15.20420866 23889
COMPASS 2               
1 42777U 17036N   17331.88079877  .00002091  00000-0  97180-4 0  9994
2 42777  97.4321  29.6481 0014512  57.7376 302.5264 15.21011472 23903
LEMUR-2-LYNSEY-SYMO     
1 42779U 17036Q   17331.85682232  .00002849  00000-0  13017-3 0  9995
2 42779  97.4315  29.6631 0014132  63.9527 296.3162 15.21301440 23892
LEMUR-2-LISASAURUS      
1 42780U 17036R   17331.85980289  .00002458  00000-0  11312-3 0  9992
2 42780  97.4310  29.6530 0014096  63.8032 296.4651 15.21192609 23907
LEMUR-2-SAM-AMELIA      
1 42781U 17036S   17331.85238800  .00002826  00000-0  12904-3 0  9995
2 42781  97.4311  29.6615 0013947  64.4787 295.7889 15.21333495 23894
LEMUR-2-MCPEAKE         
1 42782U 17036T   17331.84921785  .00002816  00000-0  12848-3 0  9992
2 42782  97.4314  29.6699 0013815  64.0439 296.2218 15.21369177 23892
DIAMOND RED             
1 42783U 17036U   17331.86154483  .00001510  00000-0  71028-4 0  9994
2 42783  97.4304  29.6472 0014050  65.1709 295.0986 15.21026672 23906
PEGASUS                 
1 42784U 17036V   17331.85569054  .00001897  00000-0  88152-4 0  9992
2 42784  97.4306  29.6576 0013990  65.4820 294.7873 15.21131435 23908
DIAMOND GREEN           
1 42785U 17036W   17331.86065251  .00001561  00000-0  73323-4 0  9996
2 42785  97.4307  29.6531 0013944  65.7346 294.5344 15.21024036 23972
DIAMOND BLUE            
1 42786U 17036X   17331.85918393  .00001712  00000-0  80166-4 0  9991
2 42786  97.4307  29.6539 0013780  66.1254 294.1424 15.21002280 23974
NUDTSAT                 
1 42787U 17036Y   17331.90074540  .00002327  00000-0  10638-3 0  9994
2 42787  97.4310  29.7506 0013574  65.9197 294.3457 15.21479146 23751
SUCHAI                  
1 42788U 17036Z   17331.84269131  .00002238  00000-0  10292-3 0  9997
2 42788  97.4308  29.6730 0013638  66.0138 294.2524 15.21314154 23970
SKCUBE                  
1 42789U 17036AA  17331.83984826  .00002080  00000-0  95880-4 0  9994
2 42789  97.4306  29.6747 0013465  66.0081 294.2563 15.21317428 23893
VZLUSAT-1               
1 42790U 17036AB  17331.82808396  .00002662  00000-0  12111-3 0  9993
2 42790  97.4306  29.6868 0013121  66.6286 293.6329 15.21516499 23893
ROBUSTA-1B              
1 42792U 17036AD  17331.89239385  .00001712  00000-0  79149-4 0  9998
2 42792  97.4304  29.7517 0013034  67.0215 293.2394 15.21449892 23918
CICERO 6                
1 42793U 17036AE  17331.74679668  .00001473  00000-0  68494-4 0  9990
2 42793  97.4300  29.6373 0012190  68.3957 291.8576 15.21485986 23968
D-SAT                   
1 42794U 17036AF  17331.75131143  .00000440  00000-0  44243-4 0  9992
2 42794  97.6224  28.6928 0126249 231.8227 127.1566 14.90717869 23715
TOKI                    
1 42820U 98067MU  17331.92108371  .00018491  00000-0  22846-3 0  9990
2 42820  51.6377 298.8719 0004029 110.2188 249.9239 15.60180269 22388
GHANASAT-1              
1 42821U 98067MV  17331.92998855  .00018069  00000-0  22503-3 0  9996
2 42821  51.6376 298.9312 0003952 112.5071 247.6341 15.59989503 22361
MAZAALAI (NUMSAT-1)     
1 42822U 98067MW  17331.92939913  .00018508  00000-0  22981-3 0  9995
2 42822  51.6378 298.9283 0003911 114.1341 246.0061 15.60049063 22366
BRAC ONNESHA            
1 42823U 98067MX  17331.93126631  .00018016  00000-0  22372-3 0  9990
2 42823  51.6383 298.9463 0006362 140.7694 219.3761 15.60057126 22361
NIGERIAEDUSAT-1         
1 42824U 98067MY  17331.93771417  .00017619  00000-0  21973-3 0  9993
2 42824  51.6389 298.9928 0006226 141.0904 219.0539 15.59962155 22366
LEMUR-2-GREENBERG       
1 42837U 17042N   17331.69708264  .00001004  00000-0  10632-3 0  9995
2 42837  97.6079 236.5509 0013902 142.8187 217.3997 14.91217254 20321
LEMUR-2-ANDIS           
1 42838U 17042P   17331.69519304  .00001110  00000-0  11686-3 0  9999
2 42838  97.6079 236.5528 0013996 142.7436 217.4757 14.91236714 20329
LEMUR-2-MONSON          
1 42839U 17042Q   17331.68784722  .00000755  00000-0  81139-4 0  9992
2 42839  97.6080 236.5612 0013830 142.0944 218.1252 14.91273594 20325
LEMUR-2-FURIAUS         
1 42840U 17042R   17331.68293031  .00001080  00000-0  11346-3 0  9996
2 42840  97.6079 236.5663 0013789 142.1892 218.0298 14.91372314 20315
LEMUR-2-PETERG          
1 42841U 17042S   17331.80510375  .00000910  00000-0  96141-4 0  9992
2 42841  97.6080 236.7127 0013536 140.2379 219.9835 14.91503995 20345
LEMUR-2-DEMBITZ         
1 42842U 17042T   17331.80310400  .00000904  00000-0  95487-4 0  9995
2 42842  97.6078 236.7128 0013525 140.7440 219.4762 14.91524685 20349
LEMUR-2-ZACHARY         
1 42845U 17042W   17331.85079946  .00000815  00000-0  86249-4 0  9997
2 42845  97.6028 236.7127 0013770 145.1693 215.0430 14.91720325 20340
FLOCK 2K-03             
1 42850U 17042AB  17331.66473425  .00009688  00000-0  28791-3 0  9996
2 42850  96.9938 233.4262 0012847 117.6500 242.6049 15.34870830 20704
FLOCK 2K-04             
1 42851U 17042AC  17331.79851688  .00006071  00000-0  18129-3 0  9999
2 42851  96.9942 233.5498 0012552 118.7695 241.4811 15.34875586 20721
FLOCK 2K-01             
1 42852U 17042AD  17331.73152260  .00007595  00000-0  22611-3 0  9997
2 42852  96.9937 233.4876 0012425 117.6090 242.6418 15.34893676 20716
FLOCK 2K-02             
1 42853U 17042AE  17331.71514765  .00002568  00000-0  82040-4 0  9996
2 42853  96.9949 233.3743 0013435 118.6716 241.5880 15.33229356 20707
FLOCK 2K-47             
1 42854U 17042AF  17331.72843556  .00007709  00000-0  22984-3 0  9993
2 42854  96.9935 233.4891 0012316 115.8574 244.3942 15.34842871 20711
FLOCK 2K-48             
1 42855U 17042AG  17331.72702216  .00007312  00000-0  21824-3 0  9993
2 42855  96.9938 233.4963 0012286 116.1979 244.0530 15.34827263 20712
FLOCK 2K-45             
1 42856U 17042AH  17331.72533427  .00007425  00000-0  22146-3 0  9993
2 42856  96.9933 233.4943 0012549 115.5133 244.7411 15.34839145 20710
FLOCK 2K-24             
1 42857U 17042AJ  17331.72408041  .00006568  00000-0  19618-3 0  9994
2 42857  96.9936 233.4956 0012570 113.7653 246.4911 15.34838886 20714
FLOCK 2K-46             
1 42858U 17042AK  17331.78800062  .00002858  00000-0  86696-4 0  9999
2 42858  96.9943 233.5660 0012586 114.6835 245.5721 15.34806001 20729
FLOCK 2K-23             
1 42859U 17042AL  17331.72111366  .00002672  00000-0  81173-4 0  9995
2 42859  96.9942 233.5037 0012574 115.6358 244.6187 15.34809885 20713
FLOCK 2K-21             
1 42860U 17042AM  17331.78487221  .00003024  00000-0  91617-4 0  9995
2 42860  96.9941 233.5664 0012619 114.8933 245.3624 15.34797344 20721
FLOCK 2K-22             
1 42861U 17042AN  17331.66892116  .00003154  00000-0  95689-4 0  9993
2 42861  96.9943 233.4293 0012542 113.9253 246.3307 15.34727312 20706
FLOCK 2K-07             
1 42862U 17042AP  17331.71799770  .00002796  00000-0  84814-4 0  9991
2 42862  96.9945 233.5087 0012831 115.7114 244.5456 15.34818406 20720
FLOCK 2K-08             
1 42863U 17042AQ  17331.78037538  .00006091  00000-0  18196-3 0  9997
2 42863  96.9940 233.5684 0012848 116.0941 244.1627 15.34858011 20721
FLOCK 2K-05             
1 42864U 17042AR  17331.78179652  .00002901  00000-0  87813-4 0  9991
2 42864  96.9945 233.5714 0012880 114.9837 245.2746 15.34853655 20721
FLOCK 2K-40             
1 42865U 17042AS  17331.71367899  .00005750  00000-0  17187-3 0  9998
2 42865  96.9943 233.5140 0012800 116.2257 244.0304 15.34862671 20710
FLOCK 2K-39             
1 42866U 17042AT  17331.71221765  .00006531  00000-0  19475-3 0  9990
2 42866  96.9939 233.5124 0012932 115.8572 244.4007 15.34889183 20710
FLOCK 2K-37             
1 42867U 17042AU  17331.77599027  .00007495  00000-0  22306-3 0  9993
2 42867  96.9941 233.5779 0012937 115.9120 244.3459 15.34901385 20725
FLOCK 2K-38             
1 42868U 17042AV  17331.77298460  .00007139  00000-0  21259-3 0  9992
2 42868  96.9940 233.5816 0012919 115.0356 245.2231 15.34896697 20726
FLOCK 2K-31             
1 42869U 17042AW  17331.77135838  .00010192  00000-0  30270-3 0  9998
2 42869  96.9938 233.5816 0013015 113.6960 246.5651 15.34874118 20721
FLOCK 2K-32             
1 42870U 17042AX  17331.70458313  .00007844  00000-0  23337-3 0  9995
2 42870  96.9936 233.5221 0013116 114.4481 245.8133 15.34894768 20719
FLOCK 2K-29             
1 42871U 17042AY  17331.76839000  .00007385  00000-0  21985-3 0  9995
2 42871  96.9938 233.5884 0013280 113.6469 246.6171 15.34891045 20723
FLOCK 2K-30             
1 42872U 17042AZ  17331.70184775  .00007498  00000-0  22328-3 0  9999
2 42872  96.9937 233.5257 0013207 115.0281 245.2336 15.34879909 20705
FLOCK 2K-44             
1 42873U 17042BA  17331.70020561  .00009932  00000-0  29463-3 0  9994
2 42873  96.9941 233.5309 0014317 105.1182 255.1647 15.34901137 20717
FLOCK 2K-43             
1 42874U 17042BB  17331.79802566  .00002808  00000-0  87858-4 0  9995
2 42874  96.9945 233.5519 0014864 106.7749 253.5126 15.33799248 20720
FLOCK 2K-41             
1 42875U 17042BC  17331.69879209  .00009859  00000-0  29230-3 0  9995
2 42875  96.9940 233.5292 0014409 106.4288 253.8541 15.34918847 20716
